start=new Date('2022-02-26T00:00:00.000Z').valueOf();
sats=[{"GP_ID":"196999335","OBJECT_ID":"2021-115R","EPOCH":"2022-02-25T22:00:00.999936","CENTER_NAME":"EARTH","MEAN_MOTION":"15.08833720","BSTAR":"-0.00072002000000","OBJECT_TYPE":"PAYLOAD","MEAN_ELEMENT_THEORY":"SGP4","REV_AT_EPOCH":"1415","COUNTRY_CODE":"US","EPHEMERIS_TYPE":"0","LAUNCH_DATE":"2021-12-02","RA_OF_ASC_NODE":"290.7094","NORAD_CAT_ID":"49739","ECCENTRICITY":"0.00026880","OBJECT_NAME":"STARLINK-3155","REF_FRAME":"TEME","APOAPSIS":"541.624","FILE":"3323454","ELEMENT_SET_NO":"999","SEMIMAJOR_AXIS":"6917.900","RCS_SIZE":"LARGE","INCLINATION":"53.2038","MEAN_MOTION_DOT":"-0.00011728","MEAN_MOTION_DDOT":"0.0000000000000","TIME_SYSTEM":"UTC","TLE_LINE1":"1 49739U 21115R   22056.91667824 -.00011728  00000-0 -72002-3 0  9995","PERIAPSIS":"537.905","TLE_LINE2":"2 49739  53.2038 290.7094 0002688  45.1094 166.7771 15.08833720 14156","CLASSIFICATION_TYPE":"U","SITE":"AFETR","PERIOD":"95.438","MEAN_ANOMALY":"166.7771","ARG_OF_PERICENTER":"45.1094","DECAY_DATE":null},{"TIME_SYSTEM":"UTC","TLE_LINE2":"2 49740  53.2194 280.6601 0002126  44.2594   2.6202 15.08824212 14305","PERIAPSIS":"538.323","TLE_LINE1":"1 49740U 21115S   22056.91667824 -.00010053  00000-0 -61466-3 0  9999","PERIOD":"95.439","CLASSIFICATION_TYPE":"U","SITE":"AFETR","DECAY_DATE":null,"ARG_OF_PERICENTER":"44.2594","MEAN_ANOMALY":"2.6202","CENTER_NAME":"EARTH","OBJECT_ID":"2021-115S","EPOCH":"2022-02-25T22:00:00.999936","GP_ID":"197001594","REV_AT_EPOCH":"1430","COUNTRY_CODE":"US","EPHEMERIS_TYPE":"0","BSTAR":"-0.00061466000000","MEAN_ELEMENT_THEORY":"SGP4","OBJECT_TYPE":"PAYLOAD","MEAN_MOTION":"15.08824212","REF_FRAME":"TEME","ECCENTRICITY":"0.00021260","OBJECT_NAME":"STARLINK-3226","NORAD_CAT_ID":"49740","RA_OF_ASC_NODE":"280.6601","LAUNCH_DATE":"2021-12-02","MEAN_MOTION_DDOT":"0.0000000000000","SEMIMAJOR_AXIS":"6917.929","RCS_SIZE":"LARGE","MEAN_MOTION_DOT":"-0.00010053","INCLINATION":"53.2194","ELEMENT_SET_NO":"999","FILE":"3323560","APOAPSIS":"541.264"},{"TIME_SYSTEM":"UTC","TLE_LINE1":"1 49741U 21115T   22056.91667824 -.00009364  00000-0 -57122-3 0  9997","TLE_LINE2":"2 49741  53.2188 280.6583 0002018  53.7014  33.1934 15.08823367  3613","PERIAPSIS":"538.400","CLASSIFICATION_TYPE":"U","SITE":"AFETR","PERIOD":"95.439","ARG_OF_PERICENTER":"53.7014","MEAN_ANOMALY":"33.1934","DECAY_DATE":null,"OBJECT_ID":"2021-115T","EPOCH":"2022-02-25T22:00:00.999936","GP_ID":"197034880","CENTER_NAME":"EARTH","BSTAR":"-0.00057122000000","MEAN_ELEMENT_THEORY":"SGP4","OBJECT_TYPE":"PAYLOAD","MEAN_MOTION":"15.08823367","REV_AT_EPOCH":"361","EPHEMERIS_TYPE":"0","COUNTRY_CODE":"US","NORAD_CAT_ID":"49741","RA_OF_ASC_NODE":"280.6583","LAUNCH_DATE":"2021-12-02","REF_FRAME":"TEME","ECCENTRICITY":"0.00020180","OBJECT_NAME":"STARLINK-3244","ELEMENT_SET_NO":"999","APOAPSIS":"541.192","FILE":"3323947","MEAN_MOTION_DDOT":"0.0000000000000","RCS_SIZE":"LARGE","SEMIMAJOR_AXIS":"6917.931","MEAN_MOTION_DOT":"-0.00009364","INCLINATION":"53.2188"},{"TLE_LINE2":"2 49742  53.2149 280.6792 0001814  48.7160 318.1516 15.08825828 14306","PERIAPSIS":"538.534","TLE_LINE1":"1 49742U 21115U   22056.91667824 -.00008682  00000-0 -52824-3 0  9994","TIME_SYSTEM":"UTC","DECAY_DATE":null,"ARG_OF_PERICENTER":"48.7160","MEAN_ANOMALY":"318.1516","PERIOD":"95.438","SITE":"AFETR","CLASSIFICATION_TYPE":"U","EPHEMERIS_TYPE":"0","COUNTRY_CODE":"US","REV_AT_EPOCH":"1430","OBJECT_TYPE":"PAYLOAD","MEAN_ELEMENT_THEORY":"SGP4","BSTAR":"-0.00052824000000","MEAN_MOTION":"15.08825828","CENTER_NAME":"EARTH","EPOCH":"2022-02-25T22:00:00.999936","OBJECT_ID":"2021-115U","GP_ID":"197005252","MEAN_MOTION_DDOT":"0.0000000000000","INCLINATION":"53.2149","MEAN_MOTION_DOT":"-0.00008682","RCS_SIZE":"LARGE","SEMIMAJOR_AXIS":"6917.924","ELEMENT_SET_NO":"999","FILE":"3323704","APOAPSIS":"541.044","REF_FRAME":"TEME","ECCENTRICITY":"0.00018140","OBJECT_NAME":"STARLINK-3202","NORAD_CAT_ID":"49742","RA_OF_ASC_NODE":"280.6792","LAUNCH_DATE":"2021-12-02"},{"CENTER_NAME":"EARTH","EPOCH":"2022-02-25T22:00:00.999936","OBJECT_ID":"2021-115V","GP_ID":"197033884","COUNTRY_CODE":"US","EPHEMERIS_TYPE":"0","REV_AT_EPOCH":"361","OBJECT_TYPE":"PAYLOAD","MEAN_ELEMENT_THEORY":"SGP4","BSTAR":"-0.00060849000000","MEAN_MOTION":"15.08819034","REF_FRAME":"TEME","ECCENTRICITY":"0.00020550","OBJECT_NAME":"STARLINK-3239","NORAD_CAT_ID":"49743","LAUNCH_DATE":"2021-12-02","RA_OF_ASC_NODE":"280.6595","MEAN_MOTION_DDOT":"0.0000000000000","INCLINATION":"53.2194","MEAN_MOTION_DOT":"-0.00009954","RCS_SIZE":"LARGE","SEMIMAJOR_AXIS":"6917.944","ELEMENT_SET_NO":"999","APOAPSIS":"541.231","FILE":"3323947","TIME_SYSTEM":"UTC","TLE_LINE2":"2 49743  53.2194 280.6595 0002055  53.9045  12.9753 15.08819034  3612","PERIAPSIS":"538.388","TLE_LINE1":"1 49743U 21115V   22056.91667824 -.00009954  00000-0 -60849-3 0  9994","PERIOD":"95.439","SITE":"AFETR","CLASSIFICATION_TYPE":"U","DECAY_DATE":null,"ARG_OF_PERICENTER":"53.9045","MEAN_ANOMALY":"12.9753"},{"MEAN_MOTION":"15.08823368","BSTAR":"-0.00037287000000","OBJECT_TYPE":"PAYLOAD","MEAN_ELEMENT_THEORY":"SGP4","REV_AT_EPOCH":"1430","COUNTRY_CODE":"US","EPHEMERIS_TYPE":"0","GP_ID":"197005232","OBJECT_ID":"2021-115W","EPOCH":"2022-02-25T22:00:00.999936","CENTER_NAME":"EARTH","FILE":"3323703","APOAPSIS":"541.047","ELEMENT_SET_NO":"999","RCS_SIZE":"LARGE","SEMIMAJOR_AXIS":"6917.931","INCLINATION":"53.2029","MEAN_MOTION_DOT":"-0.00006215","MEAN_MOTION_DDOT":"0.0000000000000","RA_OF_ASC_NODE":"280.7517","LAUNCH_DATE":"2021-12-02","NORAD_CAT_ID":"49744","ECCENTRICITY":"0.00018080","OBJECT_NAME":"STARLINK-3231","REF_FRAME":"TEME","TLE_LINE1":"1 49744U 21115W   22056.91667824 -.00006215  00000-0 -37287-3 0  9992","PERIAPSIS":"538.545","TLE_LINE2":"2 49744  53.2029 280.7517 0001808  54.6690 272.2132 15.08823368 14309","TIME_SYSTEM":"UTC","MEAN_ANOMALY":"272.2132","ARG_OF_PERICENTER":"54.6690","DECAY_DATE":null,"CLASSIFICATION_TYPE":"U","SITE":"AFETR","PERIOD":"95.439"},{"PERIOD":"95.438","SITE":"AFETR","CLASSIFICATION_TYPE":"U","DECAY_DATE":null,"MEAN_ANOMALY":"332.6601","ARG_OF_PERICENTER":"54.1695","TIME_SYSTEM":"UTC","PERIAPSIS":"538.381","TLE_LINE2":"2 49745  53.2198 280.6616 0002009  54.1695 332.6601 15.08831815  3610","TLE_LINE1":"1 49745U 21115X   22056.91667824 -.00009621  00000-0 -58733-3 0  9996","ECCENTRICITY":"0.00020090","OBJECT_NAME":"STARLINK-3241","REF_FRAME":"TEME","LAUNCH_DATE":"2021-12-02","RA_OF_ASC_NODE":"280.6616","NORAD_CAT_ID":"49745","INCLINATION":"53.2198","MEAN_MOTION_DOT":"-0.00009621","SEMIMAJOR_AXIS":"6917.905","RCS_SIZE":"LARGE","MEAN_MOTION_DDOT":"0.0000000000000","APOAPSIS":"541.160","FILE":"3323947","ELEMENT_SET_NO":"999","CENTER_NAME":"EARTH","GP_ID":"197034381","EPOCH":"2022-02-25T22:00:00.999936","OBJECT_ID":"2021-115X","COUNTRY_CODE":"US","EPHEMERIS_TYPE":"0","REV_AT_EPOCH":"361","MEAN_MOTION":"15.08831815","MEAN_ELEMENT_THEORY":"SGP4","OBJECT_TYPE":"PAYLOAD","BSTAR":"-0.00058733000000"},{"MEAN_ANOMALY":"221.4684","ARG_OF_PERICENTER":"65.4405","DECAY_DATE":null,"SITE":"AFETR","CLASSIFICATION_TYPE":"U","PERIOD":"95.439","TLE_LINE1":"1 49746U 21115Y   22056.91667824 -.00003382  00000-0 -19460-3 0  9999","PERIAPSIS":"538.610","TLE_LINE2":"2 49746  53.1886 280.8276 0001744  65.4405 221.4684 15.08816827  3619","TIME_SYSTEM":"UTC","FILE":"3323947","APOAPSIS":"541.023","ELEMENT_SET_NO":"999","MEAN_MOTION_DOT":"-0.00003382","INCLINATION":"53.1886","SEMIMAJOR_AXIS":"6917.951","RCS_SIZE":"LARGE","MEAN_MOTION_DDOT":"0.0000000000000","LAUNCH_DATE":"2021-12-02","RA_OF_ASC_NODE":"280.8276","NORAD_CAT_ID":"49746","ECCENTRICITY":"0.00017440","OBJECT_NAME":"STARLINK-3233","REF_FRAME":"TEME","MEAN_MOTION":"15.08816827","OBJECT_TYPE":"PAYLOAD","MEAN_ELEMENT_THEORY":"SGP4","BSTAR":"-0.00019460000000","COUNTRY_CODE":"US","EPHEMERIS_TYPE":"0","REV_AT_EPOCH":"361","GP_ID":"197035136","EPOCH":"2022-02-25T22:00:00.999936","OBJECT_ID":"2021-115Y","CENTER_NAME":"EARTH"},{"ARG_OF_PERICENTER":"53.3425","MEAN_ANOMALY":"293.5583","DECAY_DATE":null,"CLASSIFICATION_TYPE":"U","SITE":"AFETR","PERIOD":"95.438","TLE_LINE1":"1 49747U 21115Z   22056.91667824 -.00019619  00000-0 -12180-2 0  9991","TLE_LINE2":"2 49747  53.2105 280.7056 0001882  53.3425 293.5583 15.08836906 14307","PERIAPSIS":"538.453","TIME_SYSTEM":"UTC","ELEMENT_SET_NO":"999","APOAPSIS":"541.057","FILE":"3323553","MEAN_MOTION_DDOT":"0.0000000000000","SEMIMAJOR_AXIS":"6917.890","RCS_SIZE":"LARGE","INCLINATION":"53.2105","MEAN_MOTION_DOT":"-0.00019619","NORAD_CAT_ID":"49747","RA_OF_ASC_NODE":"280.7056","LAUNCH_DATE":"2021-12-02","REF_FRAME":"TEME","OBJECT_NAME":"STARLINK-3247","ECCENTRICITY":"0.00018820","BSTAR":"-0.00121800000000","MEAN_ELEMENT_THEORY":"SGP4","OBJECT_TYPE":"PAYLOAD","MEAN_MOTION":"15.08836906","REV_AT_EPOCH":"1430","COUNTRY_CODE":"US","EPHEMERIS_TYPE":"0","OBJECT_ID":"2021-115Z","EPOCH":"2022-02-25T22:00:00.999936","GP_ID":"197001873","CENTER_NAME":"EARTH"},{"TIME_SYSTEM":"UTC","TLE_LINE1":"1 49748U 21115AA  22056.91667824 -.00002670  00000-0 -14969-3 0  9999","TLE_LINE2":"2 49748  53.2286 280.5642 0001761  60.7288 186.1245 15.08842939 14318","PERIAPSIS":"538.518","SITE":"AFETR","CLASSIFICATION_TYPE":"U","PERIOD":"95.437","ARG_OF_PERICENTER":"60.7288","MEAN_ANOMALY":"186.1245","DECAY_DATE":null,"EPOCH":"2022-02-25T22:00:00.999936","OBJECT_ID":"2021-115AA","GP_ID":"197001625","CENTER_NAME":"EARTH","OBJECT_TYPE":"PAYLOAD","MEAN_ELEMENT_THEORY":"SGP4","BSTAR":"-0.00014969000000","MEAN_MOTION":"15.08842939","EPHEMERIS_TYPE":"0","COUNTRY_CODE":"US","REV_AT_EPOCH":"1431","NORAD_CAT_ID":"49748","RA_OF_ASC_NODE":"280.5642","LAUNCH_DATE":"2021-12-02","REF_FRAME":"TEME","ECCENTRICITY":"0.00017610","OBJECT_NAME":"STARLINK-3248","ELEMENT_SET_NO":"999","FILE":"3323553","APOAPSIS":"540.955","MEAN_MOTION_DDOT":"0.0000000000000","INCLINATION":"53.2286","MEAN_MOTION_DOT":"-0.00002670","RCS_SIZE":"LARGE","SEMIMAJOR_AXIS":"6917.871"}];
